{"type":"FeatureCollection","features":[{"type":"Feature","properties":{},"geometry":{"coordinates":[[[49.12138921790785,55.77828621763064],[49.12120471773113,55.77776740264929],[49.12115859268741,55.7770410500718],[49.12157371808459,55.773902013627605],[49.12286521931995,55.77237131738502],[49.127062598335726,55.76819402688727],[49.13098322708734,55.76959515557951],[49.12821572443988,55.77180053390836],[49.12687809815901,55.77395390058251],[49.1272470985125,55.77493973960043],[49.126093972410104,55.77610714829365],[49.126140097453856,55.778571562926345],[49.12378772020361,55.781528654778754],[49.11968259127528,55.784174283593615],[49.117191838891955,55.7818658527533],[49.12138921790785,55.77828621763064]]],"type":"Polygon"}},{"type":"Feature","properties":{},"geometry":{"coordinates":[[[49.12934156849519,55.760061858188095],[49.13043892941437,55.756654430355695],[49.13309661141233,55.75568550193765],[49.13826224684337,55.75227299715368],[49.14518861407572,55.74641875334527],[49.1498599236952,55.743772659831734],[49.15094545577813,55.739157979002925],[49.15895595652543,55.73835720462819],[49.16165107066243,55.74255056210063],[49.16000405646787,55.74465760681056],[49.15588652097924,55.74541611505407],[49.15592395311967,55.747523005031354],[49.15408977821977,55.749313772059736],[49.150815913067675,55.75213479276414],[49.14445244913085,55.75569475734312],[49.14060864287819,55.75614421138076],[49.13540557530524,55.760251411761516],[49.13319707899751,55.76029353465276],[49.132411004041444,55.76178886781153],[49.130801421985865,55.762926125063586],[49.12934156849519,55.761388713853165],[49.12934156849519,55.760061858188095]]],"type":"Polygon"}}]}