{"type":"FeatureCollection","features":[{"type":"Feature","properties":{},"geometry":{"coordinates":[[[49.12688631365373,55.76832245628188],[49.127013813402385,55.76826072460128],[49.12716728400056,55.76821672594184],[49.12957386495822,55.769015884391905],[49.12990875616197,55.76912054343816],[49.12823430014339,55.77033456784247],[49.12838314067858,55.77097296205878],[49.12819709000999,55.77185204517994],[49.12776917347273,55.77244855457889],[49.12670868466,55.77407059537799],[49.126883852679526,55.775187380543684],[49.12628849053894,55.77616054473731],[49.12656756654255,55.77751037742178],[49.1263629108073,55.77857765388791],[49.12532102706271,55.779885550875434],[49.123347602396734,55.78187373379211],[49.11996148022621,55.78392432325941],[49.11724514046307,55.78165402137671],[49.1210380902003,55.77822216668599],[49.12150321687247,55.77439235693444],[49.12303506481257,55.772445883504275],[49.12688631365373,55.76832245628188]]],"type":"Polygon"}},{"type":"Feature","properties":{},"geometry":{"coordinates":[[[49.12138921790785,55.77828621763064],[49.12120471773113,55.77776740264929],[49.12115859268741,55.7770410500718],[49.12157371808459,55.773902013627605],[49.12286521931995,55.77237131738502],[49.127062598335726,55.76819402688727],[49.13098322708734,55.76959515557951],[49.12821572443988,55.77180053390836],[49.12687809815901,55.77395390058251],[49.1272470985125,55.77493973960043],[49.126093972410104,55.77610714829365],[49.126140097453856,55.778571562926345],[49.12378772020361,55.781528654778754],[49.11968259127528,55.784174283593615],[49.117191838891955,55.7818658527533],[49.12138921790785,55.77828621763064]]],"type":"Polygon"}},{"type":"Feature","properties":{},"geometry":{"coordinates":[[[49.12934156849519,55.760061858188095],[49.13043892941437,55.756654430355695],[49.13309661141233,55.75568550193765],[49.13826224684337,55.75227299715368],[49.14518861407572,55.74641875334527],[49.1498599236952,55.743772659831734],[49.15094545577813,55.739157979002925],[49.15895595652543,55.73835720462819],[49.16165107066243,55.74255056210063],[49.16000405646787,55.74465760681056],[49.15588652097924,55.74541611505407],[49.15592395311967,55.747523005031354],[49.15408977821977,55.749313772059736],[49.150815913067675,55.75213479276414],[49.14445244913085,55.75569475734312],[49.14060864287819,55.75614421138076],[49.13540557530524,55.760251411761516],[49.13319707899751,55.76029353465276],[49.132411004041444,55.76178886781153],[49.130801421985865,55.762926125063586],[49.12934156849519,55.761388713853165],[49.12934156849519,55.760061858188095]]],"type":"Polygon"}},{"type":"Feature","properties":{},"geometry":{"coordinates":[[[49.21713160200315,55.755669071236724],[49.21787681068412,55.756039075519254],[49.21822745895352,55.756729751331505],[49.218139666097386,55.75783974235702],[49.21818352889488,55.76067618187329],[49.21511508325045,55.76057752689243],[49.214852091989286,55.76136676621027],[49.21743813211356,55.76632370022921],[49.21726281516925,55.76684156508952],[49.21064384037399,55.76851842259231],[49.20810146431393,55.768691092978116],[49.20639190684582,55.76711291692192],[49.202139887147865,55.764030451156856],[49.196002534863084,55.7598869366214],[49.19929040487685,55.757173588437155],[49.208364687028336,55.75727233299],[49.21432618380035,55.75746972493263],[49.21713160200315,55.755669071236724]]],"type":"Polygon"}},{"type":"Feature","properties":{},"geometry":{"coordinates":[[[49.15166990651551,55.804389175662976],[49.156635614015556,55.796242969149546],[49.15701471159099,55.792970452406905],[49.16798241402418,55.79428017236333],[49.16524127544733,55.8002267013139],[49.167884466384066,55.80449244169776],[49.176665357220486,55.80787150328345],[49.1756276494356,55.814038949067964],[49.176694699892636,55.81709609863549],[49.16781586660335,55.821321837217795],[49.16324698934977,55.81481217074315],[49.15516343706378,55.80813292957387],[49.15166990651551,55.804389175662976]]],"type":"Polygon"}}]}