{"type":"FeatureCollection","features":[{"type":"Feature","properties":{},"geometry":{"coordinates":[[[49.094965897752786,55.74189238547879],[49.10644610459701,55.733632284119324],[49.13656990307368,55.73039920437155],[49.16288749976982,55.730055046348554],[49.16926860033139,55.72781304752976],[49.18068024919692,55.72383246119024],[49.18729198959278,55.72603275388835],[49.194398338092014,55.72771849694571],[49.19622953914194,55.72859477458798],[49.18609064416523,55.736070833592265],[49.190368306125976,55.73815985145043],[49.19292030699471,55.739948225461035],[49.193696329649974,55.73805136089693],[49.19746631996293,55.73654552911565],[49.201418991741605,55.73569733481152],[49.203879961330244,55.734391496055366],[49.2089878640677,55.73519381977677],[49.21079965478877,55.738383957013106],[49.21557045198716,55.73898810023127],[49.22495035559025,55.73989600639888],[49.24188492981068,55.74898716188514],[49.252768748784945,55.74920149527321],[49.25482017083732,55.75802112932449],[49.25549731967757,55.76518433608951],[49.26232335583799,55.76852256523546],[49.270279482189125,55.77204612995854],[49.27076046156296,55.77969491373413],[49.262946400788934,55.78348570962962],[49.254020774481745,55.78813317093778],[49.26311319646814,55.793106864980686],[49.25563645494418,55.799862936955215],[49.24187545528153,55.80539571004621],[49.23403593534189,55.809674130398605],[49.2319701656906,55.81805388764634],[49.22382527839648,55.819469844376414],[49.220673174394875,55.816895228638714],[49.21341095351504,55.815950880489616],[49.20819728938134,55.81313491665614],[49.19969657167971,55.81787539191254],[49.19621127144953,55.8233402920187],[49.186909850317164,55.827041363500854],[49.18082103631119,55.819737786004865],[49.17769283647564,55.81347482678385],[49.17667384512595,55.80685133523333],[49.168673928543456,55.80328619543013],[49.15255951733272,55.80380732377711],[49.144459556741964,55.8081071389109],[49.13838869211503,55.81070566153559],[49.14356010084735,55.81272839183675],[49.14730882481437,55.81374926427381],[49.14954058280878,55.81550885581002],[49.15489766280315,55.81811936618971],[49.159667070031645,55.818170777581855],[49.16287772192719,55.81845216522908],[49.1660211563163,55.82004037081633],[49.1666612846431,55.82169008142131],[49.16782423605804,55.82298838759543],[49.165405393381015,55.82428141364787],[49.16332365915635,55.825593375514124],[49.16119943546378,55.826646822230344],[49.16088102070728,55.83084324674945],[49.1605771655604,55.83657308337585],[49.15940590942155,55.83671260894312],[49.159133606426394,55.84156152599295],[49.15612773355305,55.842973026657134],[49.15604267291428,55.8459191582898],[49.14923866267272,55.84806109907486],[49.13970047999469,55.848348854718594],[49.118233703902916,55.84655918199914],[49.078904469862465,55.84304390200987],[49.05490839118637,55.83652493964017],[49.04130747300536,55.82663553916794],[49.03896782904047,55.819429410446375],[49.046915130526315,55.81667262265403],[49.0483797630755,55.81124204669513],[49.0488843514255,55.80720858811604],[49.04555074097347,55.80529685893969],[49.039780523541175,55.80500567260333],[49.03325746990477,55.80416767939348],[49.03435212062166,55.800271857837004],[49.04711049377464,55.797002615774815],[49.050880724001296,55.79564654467054],[49.05419725223919,55.794315949129896],[49.05605957438337,55.79313100889934],[49.05855706028683,55.792965984647594],[49.059920728201035,55.79354039559391],[49.060014509308985,55.794828745237346],[49.06428978051076,55.796412438302426],[49.06757825803914,55.79743803860013],[49.067532685991935,55.79943825263196],[49.07485669480545,55.80415355150012],[49.084228914763806,55.80547370435567],[49.089755174976645,55.805716515213106],[49.094109086388826,55.8068817388225],[49.09866820645837,55.8086728676338],[49.099710164796996,55.810200442067405],[49.10235442942279,55.811453647805195],[49.104021715259194,55.813167988227974],[49.1048934539483,55.812247705688605],[49.10551809705349,55.81175713525813],[49.10670032690334,55.81133184709587],[49.10793744178466,55.81119503111411],[49.11044357185254,55.811899334321865],[49.11253968655976,55.81310030028955],[49.11289964092779,55.81444846907034],[49.112766511646925,55.81483117981524],[49.11273899434667,55.81519907354352],[49.113204877304014,55.81538286433249],[49.11343667010332,55.81574462180744],[49.11388262730661,55.8163278732294],[49.114915522038345,55.816602473200014],[49.117727391964785,55.81586657125773],[49.12237416276335,55.81593170779806],[49.12775989084618,55.81438952286014],[49.13259862934737,55.81109072910456],[49.143272641157125,55.80418976399994],[49.12671973388325,55.803644381191845],[49.1203381100764,55.80429938654336],[49.11173817675754,55.802767022482556],[49.10759680319143,55.803034997817974],[49.10173459540846,55.80172583328431],[49.09657227988572,55.79936905007284],[49.093487395103324,55.79808952262816],[49.09188995753996,55.79739007140329],[49.086306921131126,55.798315984500334],[49.08695136463078,55.79657654963232],[49.092900314162364,55.79500401132578],[49.0975940668623,55.79109846282934],[49.097911475732104,55.786489931381965],[49.095507377645305,55.777635401721255],[49.10618761650446,55.76653512903022],[49.10431296474576,55.75556701215663],[49.094965897752786,55.74189238547879]]],"type":"Polygon"}}]}